NORAD_CAT_ID,OBJECT_NAME,OBJECT_TYPE,EPOCH,MEAN_MOTION,ECCENTRICITY,INCLINATION,RA_OF_ASC_NODE,ARG_OF_PERICENTER,MEAN_ANOMALY,BSTAR,MEAN_MOTION_DOT,MEAN_MOTION_DDOT,TLE_LINE0,TLE_LINE1,TLE_LINE2,SEMIMAJOR_AXIS,PERIOD,APOGEE,PERIGEE,DECAYED
55647.0,STARLINK-5510,PAYLOAD,2023-02-22 16:00:00,15.94690732,0.0037528,70.0,136.7821,163.3391,237.9297,-0.0026553,-0.01088271,0.00036314,0 STARLINK-5510,1 55647U 23021V   23053.66667824 -.01088271  36314-3 -26553-2 0  9995,2 55647  70.0000 136.7821 0037528 163.3391 237.9297 15.94690732  1304,6667.313,90.3,314.199,264.157,0.0
55647.0,STARLINK-5510,PAYLOAD,2023-02-22 22:00:00,15.94192724,0.0034122,69.9995,136.0529,163.4628,232.3235,-0.0029054,-0.01144145,0.00039625,0 STARLINK-5510,1 55647U 23021V   23053.91667824 -.01144145  39625-3 -29054-2 0  9993,2 55647  69.9995 136.0529 0034122 163.4628 232.3235 15.94192724  1302,6668.702,90.328,313.322,267.812,0.0
55647.0,STARLINK-5510,PAYLOAD,2023-02-23 08:00:01,15.93280801,0.0029689,69.9999,134.8399,165.3228,100.3036,-0.0029688,-0.01098024,0.00036387,0 STARLINK-5510,1 55647U 23021V   23054.33334491 -.01098024  36387-3 -29688-2 0  9990,2 55647  69.9999 134.8399 0029689 165.3228 100.3036 15.93280801  1403,6671.246,90.38,312.917,273.305,0.0
55647.0,STARLINK-5510,PAYLOAD,2023-02-23 14:00:01,15.92760616,0.0027259,69.9999,134.1122,166.2686,92.613,-0.0031149,-0.01113019,0.00037114,0 STARLINK-5510,1 55647U 23021V   23054.58334491 -.01113019  37114-3 -31149-2 0  9993,2 55647  69.9999 134.1122 0027259 166.2686  92.6130 15.92760616  1302,6672.699,90.409,312.753,276.374,0.0
55647.0,STARLINK-5510,PAYLOAD,2023-02-23 16:00:00,15.92577307,0.0026385,70.0,133.8701,167.0309,209.5013,-0.003121,-0.01102061,0.00036375,0 STARLINK-5510,1 55647U 23021V   23054.66667824 -.01102061  36375-3 -31210-2 0  9993,2 55647  70.0000 133.8701 0026385 167.0309 209.5013 15.92577307  1455,6673.211,90.419,312.683,277.468,0.0
55647.0,STARLINK-5510,PAYLOAD,2023-02-23 22:00:00,15.92082196,0.0023534,69.9995,133.1432,168.1248,201.0167,-0.0034052,-0.011631,0.00039983,0 STARLINK-5510,1 55647U 23021V   23054.91667824 -.01163100  39983-3 -34052-2 0  9997,2 55647  69.9995 133.1432 0023534 168.1248 201.0167 15.92082196  1304,6674.594,90.448,312.167,280.751,0.0
55647.0,STARLINK-5510,PAYLOAD,2023-02-24 02:00:01,15.91684015,0.0022361,69.9999,132.6596,169.3205,74.6586,-0.0032439,-0.01083169,0.00034918,0 STARLINK-5510,1 55647U 23021V   23055.08334491 -.01083169  34918-3 -32439-2 0  9993,2 55647  69.9999 132.6596 0022361 169.3205  74.6586 15.91684015  1526,6675.707,90.47,312.5,282.645,0.0
55647.0,STARLINK-5510,PAYLOAD,2023-02-24 08:00:01,15.911591,0.0019585,70.0002,131.9341,172.4445,63.3623,-0.0033778,-0.01091652,0.00035241,0 STARLINK-5510,1 55647U 23021V   23055.33334491 -.01091652  35241-3 -33778-2 0  9994,2 55647  70.0002 131.9341 0019585 172.4445  63.3623 15.91159100  1562,6677.175,90.5,312.117,285.963,0.0
55647.0,STARLINK-5510,PAYLOAD,2023-02-24 14:00:01,15.90632101,0.0017324,69.9999,131.209,175.3624,51.7963,-0.0034973,-0.0109587,0.00035309,0 STARLINK-5510,1 55647U 23021V   23055.58334491 -.01095870  35309-3 -34973-2 0  9990,2 55647  69.9999 131.2090 0017324 175.3624  51.7963 15.90632101  1304,6678.65,90.53,312.085,288.945,0.0
55647.0,STARLINK-5510,PAYLOAD,2023-02-24 18:00:00,15.90265989,0.0015936,69.9997,130.7264,178.2211,282.9137,-0.0034944,-0.01072648,0.00033817,0 STARLINK-5510,1 55647U 23021V   23055.75001157 -.01072648  33817-3 -34944-2 0  9997,2 55647  69.9997 130.7264 0015936 178.2211 282.9137 15.90265989  1633,6679.675,90.551,312.185,290.895,0.0
55647.0,STARLINK-5510,PAYLOAD,2023-02-24 22:00:00,15.89957927,0.0014027,69.9997,130.2431,182.4603,152.4156,-0.0038461,-0.01158558,0.00038874,0 STARLINK-5510,1 55647U 23021V   23055.91667824 -.01158558  38874-3 -38461-2 0  9995,2 55647  69.9997 130.2431 0014027 182.4603 152.4156 15.89957927  1300,6680.538,90.568,311.773,293.032,0.0
55647.0,STARLINK-5510,PAYLOAD,2023-02-25 02:00:01,15.89557542,0.001294,70.0001,129.7608,186.1549,22.2867,-0.0036247,-0.01069328,0.00033393,0 STARLINK-5510,1 55647U 23021V   23056.08334491 -.01069328  33393-3 -36247-2 0  9992,2 55647  70.0001 129.7608 0012940 186.1549  22.2867 15.89557542  1683,6681.659,90.591,312.171,294.878,0.0
55647.0,STARLINK-5510,PAYLOAD,2023-02-25 08:00:01,15.89027238,0.0011071,69.9999,129.0375,194.1179,4.2474,-0.0037306,-0.01069542,0.00033234,0 STARLINK-5510,1 55647U 23021V   23056.33334491 -.01069542  33234-3 -37306-2 0  9999,2 55647  69.9999 129.0375 0011071 194.1179   4.2474 15.89027238  1725,6683.146,90.621,312.41,297.612,0.0
55647.0,STARLINK-5510,PAYLOAD,2023-02-25 14:00:01,15.88510367,0.0009643,69.9997,128.315,205.1599,342.6451,-0.003905,-0.01089496,0.00034219,0 STARLINK-5510,1 55647U 23021V   23056.58334491 -.01089496  34219-3 -39050-2 0  9998,2 55647  69.9997 128.3150 0009643 205.1599 342.6451 15.88510367  1764,6684.596,90.651,312.907,300.015,0.0
55647.0,STARLINK-5510,PAYLOAD,2023-02-25 22:00:00,15.87822827,0.0008455,69.9995,127.3518,223.5041,69.483,-0.0042056,-0.01017889,0.0,0 STARLINK-5510,1 55647U 23021V   23056.91667824 -.01017889  00000-0 -42056-2 0  9999,2 55647  69.9995 127.3518 0008455 223.5041  69.4830 15.87822827  1812,6686.525,90.69,314.044,302.737,0.0
55647.0,STARLINK-5510,PAYLOAD,2023-02-26 06:00:00,15.87127674,0.0008652,69.9993,126.3902,246.34,150.9804,-0.0044154,-0.01031031,0.0,0 STARLINK-5510,1 55647U 23021V   23057.25001157 -.01031031  00000-0 -44154-2 0  9994,2 55647  69.9993 126.3902 0008652 246.3400 150.9804 15.87127674  1878,6688.477,90.73,316.129,304.556,0.0
55647.0,STARLINK-5510,PAYLOAD,2023-02-26 14:00:01,15.86377323,0.000913,69.9998,125.43,261.666,239.165,-0.0042606,-0.00966295,0.0,0 STARLINK-5510,1 55647U 23021V   23057.58334491 -.00966295  00000-0 -42606-2 0  9998,2 55647  69.9998 125.4300 0009130 261.6660 239.1650 15.86377323  1309,6690.586,90.773,318.56,306.343,0.0
55647.0,STARLINK-5510,PAYLOAD,2023-02-26 22:00:00,15.85674185,0.0008091,69.9995,124.4697,269.4023,334.0728,-0.0044422,-0.00971687,0.0,0 STARLINK-5510,1 55647U 23021V   23057.91667824 -.00971687  00000-0 -44422-2 0  9993,2 55647  69.9995 124.4697 0008091 269.4023 334.0728 15.85674185  1977,6692.564,90.813,319.844,309.014,0.0
55647.0,STARLINK-5510,PAYLOAD,2023-02-27 14:00:01,15.84280846,0.0006904,70.0001,122.5536,271.7971,174.4172,-0.0049238,-0.01002093,0.0,0 STARLINK-5510,1 55647U 23021V   23058.58334491 -.01002093  00000-0 -49238-2 0  9995,2 55647  70.0001 122.5536 0006904 271.7971 174.4172 15.84280846  2086,6696.487,90.893,322.976,313.729,0.0
55647.0,STARLINK-5510,PAYLOAD,2023-02-27 22:00:01,15.83581266,0.0004079,70.0002,121.5969,280.0149,266.3622,-0.0051244,-0.01005771,0.0,0 STARLINK-5510,1 55647U 23021V   23058.91668981 -.01005771  00000-0 -51244-2 0  9992,2 55647  70.0002 121.5969 0004079 280.0149 266.3622 15.83581266  1301,6698.46,90.933,323.057,317.592,0.0
55647.0,STARLINK-5510,PAYLOAD,2023-02-28 14:00:01,15.82154422,0.0003665,69.9999,119.6861,271.548,112.4327,-0.0053707,-0.00987188,0.0,0 STARLINK-5510,1 55647U 23021V   23059.58334491 -.00987188  00000-0 -53707-2 0  9998,2 55647  69.9999 119.6861 0003665 271.5480 112.4327 15.82154422  1307,6702.486,91.015,326.808,321.895,0.0
55647.0,STARLINK-5510,PAYLOAD,2023-02-28 16:00:00,15.81967952,0.0003497,69.9998,119.4478,272.103,226.3518,-0.0053383,-0.00974089,0.0,0 STARLINK-5510,1 55647U 23021V   23059.66667824 -.00974089  00000-0 -53383-2 0  9992,2 55647  69.9998 119.4478 0003497 272.1030 226.3518 15.81967952  2250,6703.013,91.026,327.222,322.534,0.0
55647.0,STARLINK-5510,PAYLOAD,2023-02-28 22:00:00,15.81455884,0.0003726,69.9999,118.7321,279.8106,201.7271,-0.005624,-0.00999127,0.0,0 STARLINK-5510,1 55647U 23021V   23059.91667824 -.00999127  00000-0 -56240-2 0  9995,2 55647  69.9999 118.7321 0003726 279.8106 201.7271 15.81455884  1307,6704.46,91.055,328.823,323.827,0.0
55647.0,STARLINK-5510,PAYLOAD,2023-03-01 14:00:01,15.80026552,0.0003651,70.0001,116.8279,269.8376,44.284,-0.0058489,-0.00975274,0.0,0 STARLINK-5510,1 55647U 23021V   23060.58334491 -.00975274  00000-0 -58489-2 0  9995,2 55647  70.0001 116.8279 0003651 269.8376  44.2840 15.80026552  2397,6708.502,91.138,332.817,327.918,0.0
55647.0,STARLINK-5510,PAYLOAD,2023-03-01 22:00:00,15.79330293,0.0003682,69.9996,115.8764,279.7636,129.372,-0.0061436,-0.00990475,0.0,0 STARLINK-5510,1 55647U 23021V   23060.91667824 -.00990475  00000-0 -61436-2 0  9997,2 55647  69.9996 115.8764 0003682 279.7636 129.3720 15.79330293  1308,6710.474,91.178,334.81,329.868,0.0
55647.0,STARLINK-5510,PAYLOAD,2023-03-02 06:00:00,15.78629272,0.0003524,69.9999,114.9268,276.9189,226.3841,-0.006394,-0.00997537,0.0,0 STARLINK-5510,1 55647U 23021V   23061.25001157 -.00997537  00000-0 -63940-2 0  9994,2 55647  69.9999 114.9268 0003524 276.9189 226.3841 15.78629272  2509,6712.46,91.218,336.691,331.96,0.0
55647.0,STARLINK-5510,PAYLOAD,2023-03-02 20:00:01,15.77380105,0.000345,69.9998,113.2672,269.9026,306.1647,-0.0066391,-0.00980999,0.0,0 STARLINK-5510,1 55647U 23021V   23061.83334491 -.00980999  00000-0 -66391-2 0  9995,2 55647  69.9998 113.2672 0003450 269.9026 306.1647 15.77380105  1305,6716.004,91.291,340.186,335.552,0.0
55647.0,STARLINK-5510,PAYLOAD,2023-03-03 12:00:00,15.75962222,0.0003733,70.0003,111.3744,283.3604,115.5401,-0.0070089,-0.00973404,0.0,0 STARLINK-5510,1 55647U 23021V   23062.50001157 -.00973404  00000-0 -70089-2 0  9992,2 55647  70.0003 111.3744 0003733 283.3604 115.5401 15.75962222  2709,6720.031,91.373,344.405,339.388,0.0
55647.0,STARLINK-5510,PAYLOAD,2023-03-03 14:00:01,15.75837052,0.0003416,69.9995,111.1378,272.9451,238.5459,-0.007588,-0.01057316,0.0,0 STARLINK-5510,1 55647U 23021V   23062.58334491 -.01057316  00000-0 -75880-2 0  9990,2 55647  69.9995 111.1378 0003416 272.9451 238.5459 15.75837052  1305,6720.387,91.38,344.548,339.957,0.0
